[{"OBJECT_NAME":"NUSHSAT1","OBJECT_ID":"2025-052B","EPOCH":"2026-03-09T15:31:41.225952","MEAN_MOTION":15.31903202,"ECCENTRICITY":0.0005501,"INCLINATION":97.4095,"RA_OF_ASC_NODE":325.7239,"ARG_OF_PERICENTER":84.7512,"MEAN_ANOMALY":275.4357,"EPHEMERIS_TYPE":0,"CLASSIFICATION_TYPE":"U","NORAD_CAT_ID":63211,"ELEMENT_SET_NO":999,"REV_AT_EPOCH":5488,"BSTAR":0.00074857,"MEAN_MOTION_DOT":0.00023034,"MEAN_MOTION_DDOT":0},{"OBJECT_NAME":"STARLINK-34865","OBJECT_ID":"2025-176C","EPOCH":"2026-03-09T13:11:46.016160","MEAN_MOTION":15.30203241,"ECCENTRICITY":0.00012083,"INCLINATION":53.1603,"RA_OF_ASC_NODE":153.7682,"ARG_OF_PERICENTER":77.3357,"MEAN_ANOMALY":282.7779,"EPHEMERIS_TYPE":0,"CLASSIFICATION_TYPE":"U","NORAD_CAT_ID":65200,"ELEMENT_SET_NO":999,"REV_AT_EPOCH":3309,"BSTAR":0.00095637322,"MEAN_MOTION_DOT":0.00028076,"MEAN_MOTION_DDOT":0}]
