NUSHSAT1                
1 63211U 25052B   26068.64700493  .00023034  00000+0  74857-3 0  9997
2 63211  97.4095 325.7239 0005501  84.7512 275.4357 15.31903202 54882
STARLINK-34865          
1 65200U 25176C   26068.54983815  .00028076  00000+0  95637-3 0  9994
2 65200  53.1603 153.7682 0001208  77.3357 282.7779 15.30203241 33096
